{"type": "FeatureCollection", "features": [ {"type": "Feature", "properties": {"norad_id": 43262, "name": "GAOFEN-1 04", "group": "resource", "lat": 7.5071157140363045, "lon": 41.00173466356385, "alt_km": 641.9885804548885, "timestamp": "2025-12-10T05:46:13.454965+00:00", "meta": {"OBJECT_NAME": "GAOFEN-1 04", "OBJECT_ID": "2018-031D", "EPOCH": "2025-12-09T19:58:37.459200", "MEAN_MOTION": 14.76438982, "ECCENTRICITY": 0.0001178, "INCLINATION": 98.0806, "RA_OF_ASC_NODE": 41.6663, "ARG_OF_PERICENTER": 54.8567, "MEAN_ANOMALY": 305.2752, "EPHEMERIS_TYPE": 0, "CLASSIFICATION_TYPE": "U", "NORAD_CAT_ID": 43262, "ELEMENT_SET_NO": 999, "REV_AT_EPOCH": 41474, "BSTAR": 0.00014617, "MEAN_MOTION_DOT": 9.65e-06, "MEAN_MOTION_DDOT": 0}, "tle": {"line1": "1 43262U 18031D   25343.83237800  .00000965  00000+0  14617-3 0  9999", "line2": "2 43262  98.0806  41.6663 0001178  54.8567 305.2752 14.76438982414744"}}, "geometry": {"type": "Point", "coordinates": [41.00173466356385, 7.5071157140363045]}}, {"type": "Feature", "properties": {"norad_id": 43437, "name": "SENTINEL-3B", "group": "resource", "lat": -77.4818752894183, "lon": -173.67768518673853, "alt_km": 810.9837316245948, "timestamp": "2025-12-10T05:46:13.454975+00:00", "meta": {"OBJECT_NAME": "SENTINEL-3B", "OBJECT_ID": "2018-039A", "EPOCH": "2025-12-09T10:02:13.739712", "MEAN_MOTION": 14.26741127, "ECCENTRICITY": 0.0001551, "INCLINATION": 98.627, "RA_OF_ASC_NODE": 48.6509, "ARG_OF_PERICENTER": 106.2359, "MEAN_ANOMALY": 253.8993, "EPHEMERIS_TYPE": 0, "CLASSIFICATION_TYPE": "U", "NORAD_CAT_ID": 43437, "ELEMENT_SET_NO": 999, "REV_AT_EPOCH": 39706, "BSTAR": 0.00013773156, "MEAN_MOTION_DOT": 2.9e-06, "MEAN_MOTION_DDOT": 0}, "tle": {"line1": "1 43437U 18039A   25343.41821458  .00000290  00000+0  13773-3 0  9996", "line2": "2 43437  98.6270  48.6509 0001551 106.2359 253.8993 14.26741127397064"}}, "geometry": {"type": "Point", "coordinates": [-173.67768518673853, -77.4818752894183]}}, {"type": "Feature", "properties": {"norad_id": 43461, "name": "GAOFEN-5 01", "group": "resource", "lat": -51.81685987831483, "lon": -41.96386324191411, "alt_km": 698.2040451284865, "timestamp": "2025-12-10T05:46:13.454985+00:00", "meta": {"OBJECT_NAME": "GAOFEN-5 01", "OBJECT_ID": "2018-043A", "EPOCH": "2025-12-09T20:08:41.307936", "MEAN_MOTION": 14.60405655, "ECCENTRICITY": 0.0001152, "INCLINATION": 98.4321, "RA_OF_ASC_NODE": 306.756, "ARG_OF_PERICENTER": 351.496, "MEAN_ANOMALY": 8.622, "EPHEMERIS_TYPE": 0, "CLASSIFICATION_TYPE": "U", "NORAD_CAT_ID": 43461, "ELEMENT_SET_NO": 999, "REV_AT_EPOCH": 40405, "BSTAR": 0.00020338, "MEAN_MOTION_DOT": 9.36e-06, "MEAN_MOTION_DDOT": 0}, "tle": {"line1": "1 43461U 18043A   25343.83936699  .00000936  00000+0  20338-3 0  9990", "line2": "2 43461  98.4321 306.7560 0001152 351.4960   8.6220 14.60405655404058"}}, "geometry": {"type": "Point", "coordinates": [-41.96386324191411, -51.81685987831483]}}, {"type": "Feature", "properties": {"norad_id": 43484, "name": "GAOFEN-6", "group": "resource", "lat": 21.628678482722826, "lon": -128.29225525773344, "alt_km": 639.6177430840635, "timestamp": "2025-12-10T05:46:13.454995+00:00", "meta": {"OBJECT_NAME": "GAOFEN-6", "OBJECT_ID": "2018-048A", "EPOCH": "2025-12-09T20:55:34.651776", "MEAN_MOTION": 14.76556527, "ECCENTRICITY": 0.0013285, "INCLINATION": 97.803, "RA_OF_ASC_NODE": 48.2348, "ARG_OF_PERICENTER": 71.8166, "MEAN_ANOMALY": 288.4489, "EPHEMERIS_TYPE": 0, "CLASSIFICATION_TYPE": "U", "NORAD_CAT_ID": 43484, "ELEMENT_SET_NO": 999, "REV_AT_EPOCH": 40545, "BSTAR": 0.00014383, "MEAN_MOTION_DOT": 9.55e-06, "MEAN_MOTION_DDOT": 0}, "tle": {"line1": "1 43484U 18048A   25343.87192884  .00000955  00000+0  14383-3 0  9998", "line2": "2 43484  97.8030  48.2348 0013285  71.8166 288.4489 14.76556527405458"}}, "geometry": {"type": "Point", "coordinates": [-128.29225525773344, 21.628678482722826]}}, {"type": "Feature", "properties": {"norad_id": 43585, "name": "GAOFEN-11 01", "group": "resource", "lat": 31.998449206575206, "lon": 42.69281631263012, "alt_km": 416.39709478016357, "timestamp": "2025-12-10T05:46:13.455010+00:00", "meta": {"OBJECT_NAME": "GAOFEN-11 01", "OBJECT_ID": "2018-063A", "EPOCH": "2025-12-09T20:19:46.785792", "MEAN_MOTION": 15.49082461, "ECCENTRICITY": 0.0004573, "INCLINATION": 97.1556, "RA_OF_ASC_NODE": 46.8051, "ARG_OF_PERICENTER": 327.3846, "MEAN_ANOMALY": 32.7122, "EPHEMERIS_TYPE": 0, "CLASSIFICATION_TYPE": "U", "NORAD_CAT_ID": 43585, "ELEMENT_SET_NO": 999, "REV_AT_EPOCH": 41097, "BSTAR": 0.00026813, "MEAN_MOTION_DOT": 0.00014472, "MEAN_MOTION_DDOT": 0}, "tle": {"line1": "1 43585U 18063A   25343.84706928  .00014472  00000+0  26813-3 0  9994", "line2": "2 43585  97.1556  46.8051 0004573 327.3846  32.7122 15.49082461410974"}}, "geometry": {"type": "Point", "coordinates": [42.69281631263012, 31.998449206575206]}}, {"type": "Feature", "properties": {"norad_id": 43613, "name": "ICESAT-2", "group": "resource", "lat": -43.61733774100834, "lon": -118.024876449837, "alt_km": 489.2773479202715, "timestamp": "2025-12-10T05:46:13.455020+00:00", "meta": {"OBJECT_NAME": "ICESAT-2", "OBJECT_ID": "2018-070A", "EPOCH": "2025-12-09T20:31:56.171136", "MEAN_MOTION": 15.28280299, "ECCENTRICITY": 0.0002347, "INCLINATION": 92.0044, "RA_OF_ASC_NODE": 239.9589, "ARG_OF_PERICENTER": 156.1641, "MEAN_ANOMALY": 203.9717, "EPHEMERIS_TYPE": 0, "CLASSIFICATION_TYPE": "U", "NORAD_CAT_ID": 43613, "ELEMENT_SET_NO": 999, "REV_AT_EPOCH": 40354, "BSTAR": 0.00069054, "MEAN_MOTION_DOT": 0.00019037, "MEAN_MOTION_DDOT": 0}, "tle": {"line1": "1 43613U 18070A   25343.85551124  .00019037  00000+0  69054-3 0  9997", "line2": "2 43613  92.0044 239.9589 0002347 156.1641 203.9717 15.28280299403544"}}, "geometry": {"type": "Point", "coordinates": [-118.024876449837, -43.61733774100834]}}, {"type": "Feature", "properties": {"norad_id": 43719, "name": "HYSIS", "group": "resource", "lat": 5.309420549593192, "lon": -132.02024691004286, "alt_km": 636.4543060546839, "timestamp": "2025-12-10T05:46:13.455030+00:00", "meta": {"OBJECT_NAME": "HYSIS", "OBJECT_ID": "2018-096A", "EPOCH": "2025-12-09T20:51:47.598624", "MEAN_MOTION": 14.78631334, "ECCENTRICITY": 0.0001491, "INCLINATION": 98.0096, "RA_OF_ASC_NODE": 46.8607, "ARG_OF_PERICENTER": 56.2997, "MEAN_ANOMALY": 303.8355, "EPHEMERIS_TYPE": 0, "CLASSIFICATION_TYPE": "U", "NORAD_CAT_ID": 43719, "ELEMENT_SET_NO": 999, "REV_AT_EPOCH": 37944, "BSTAR": 0.00024078, "MEAN_MOTION_DOT": 1.711e-05, "MEAN_MOTION_DDOT": 0}, "tle": {"line1": "1 43719U 18096A   25343.86930091  .00001711  00000+0  24078-3 0  9994", "line2": "2 43719  98.0096  46.8607 0001491  56.2997 303.8355 14.78631334379446"}}, "geometry": {"type": "Point", "coordinates": [-132.02024691004286, 5.309420549593192]}}, {"type": "Feature", "properties": {"norad_id": 43783, "name": "KAZSTSAT", "group": "resource", "lat": -44.31839839255646, "lon": -167.814156939905, "alt_km": 577.5475201809104, "timestamp": "2025-12-10T05:46:13.455040+00:00", "meta": {"OBJECT_NAME": "KAZSTSAT", "OBJECT_ID": "2018-099AB", "EPOCH": "2025-12-09T12:45:13.516416", "MEAN_MOTION": 14.99338471, "ECCENTRICITY": 0.000607, "INCLINATION": 97.4557, "RA_OF_ASC_NODE": 18.8541, "ARG_OF_PERICENTER": 343.5366, "MEAN_ANOMALY": 16.566, "EPHEMERIS_TYPE": 0, "CLASSIFICATION_TYPE": "U", "NORAD_CAT_ID": 43783, "ELEMENT_SET_NO": 999, "REV_AT_EPOCH": 38288, "BSTAR": 0.00022079, "MEAN_MOTION_DOT": 2.643e-05, "MEAN_MOTION_DDOT": 0}, "tle": {"line1": "1 43783U 18099AB  25343.53140644  .00002643  00000+0  22079-3 0  9993", "line2": "2 43783  97.4557  18.8541 0006070 343.5366  16.5660 14.99338471382886"}}, "geometry": {"type": "Point", "coordinates": [-167.814156939905, -44.31839839255646]}}, {"type": "Feature", "properties": {"norad_id": 43831, "name": "SAUDISAT 5A", "group": "resource", "lat": 40.767789098135076, "lon": 38.102594086560735, "alt_km": 479.8047720497616, "timestamp": "2025-12-10T05:46:13.455050+00:00", "meta": {"OBJECT_NAME": "SAUDISAT 5A", "OBJECT_ID": "2018-102A", "EPOCH": "2025-12-09T20:08:44.688768", "MEAN_MOTION": 15.25600424, "ECCENTRICITY": 0.0011834, "INCLINATION": 97.3352, "RA_OF_ASC_NODE": 44.0861, "ARG_OF_PERICENTER": 85.1064, "MEAN_ANOMALY": 275.1525, "EPHEMERIS_TYPE": 0, "CLASSIFICATION_TYPE": "U", "NORAD_CAT_ID": 43831, "ELEMENT_SET_NO": 999, "REV_AT_EPOCH": 38678, "BSTAR": 0.00039335, "MEAN_MOTION_DOT": 9.946e-05, "MEAN_MOTION_DDOT": 0}, "tle": {"line1": "1 43831U 18102A   25343.83940612  .00009946  00000+0  39335-3 0  9994", "line2": "2 43831  97.3352  44.0861 0011834  85.1064 275.1525 15.25600424386782"}}, "geometry": {"type": "Point", "coordinates": [38.102594086560735, 40.767789098135076]}}, {"type": "Feature", "properties": {"norad_id": 43833, "name": "SAUDISAT 5B", "group": "resource", "lat": 82.63740164670403, "lon": -46.197950095479, "alt_km": 471.8528903230299, "timestamp": "2025-12-10T05:46:13.455061+00:00", "meta": {"OBJECT_NAME": "SAUDISAT 5B", "OBJECT_ID": "2018-102C", "EPOCH": "2025-12-09T19:56:00.568896", "MEAN_MOTION": 15.25953371, "ECCENTRICITY": 0.0012531, "INCLINATION": 97.3446, "RA_OF_ASC_NODE": 46.8108, "ARG_OF_PERICENTER": 87.4564, "MEAN_ANOMALY": 272.8109, "EPHEMERIS_TYPE": 0, "CLASSIFICATION_TYPE": "U", "NORAD_CAT_ID": 43833, "ELEMENT_SET_NO": 999, "REV_AT_EPOCH": 38689, "BSTAR": 0.00034659, "MEAN_MOTION_DOT": 8.849e-05, "MEAN_MOTION_DDOT": 0}, "tle": {"line1": "1 43833U 18102C   25343.83056214  .00008849  00000+0  34659-3 0  9997", "line2": "2 43833  97.3446  46.8108 0012531  87.4564 272.8109 15.25953371386893"}}, "geometry": {"type": "Point", "coordinates": [-46.197950095479, 82.63740164670403]}}]}